CCSDS_OMM_VERS,COMMENT,CREATION_DATE,ORIGINATOR,OBJECT_NAME,OBJECT_ID,CENTER_NAME,REF_FRAME,TIME_SYSTEM,MEAN_ELEMENT_THEORY,EPOCH,MEAN_MOTION,ECCENTRICITY,INCLINATION,RA_OF_ASC_NODE,ARG_OF_PERICENTER,MEAN_ANOMALY,EPHEMERIS_TYPE,CLASSIFICATION_TYPE,NORAD_CAT_ID,ELEMENT_SET_NO,REV_AT_EPOCH,BSTAR,MEAN_MOTION_DOT,MEAN_MOTION_DDOT,SEMIMAJOR_AXIS,PERIOD,APOAPSIS,PERIAPSIS,OBJECT_TYPE,RCS_SIZE,COUNTRY_CODE,LAUNCH_DATE,SITE,DECAY_DATE,FILE,GP_ID,TLE_LINE0,TLE_LINE1,TLE_LINE2
"2.0","GENERATED VIA SPACE-TRACK.ORG API","2012-07-26T17:06:28","18 SPCS","BLITS","2009-049G","EARTH","TEME","UTC","SGP4","2012-07-26T16:38:26.602944","14.21584686","0.00026950","98.6421","261.3842","301.8790","58.2088","0","U","35871","999","14757","0.00001615600000","-0.00000008","0.0000000000000","7198.140","101.295","821.944","818.065","PAYLOAD","SMALL","CIS","2009-09-17","TTMTR","","1324665","89783996","0 BLITS","1 35871U 09049G   12208.69336346 -.00000008  00000-0  16156-4 0  9991","2 35871 098.6421 261.3842 0002695 301.8790 058.2088 14.21584686147572"
"2.0","GENERATED VIA SPACE-TRACK.ORG API","2012-07-27T08:31:46","18 SPCS","BLITS","2009-049G","EARTH","TEME","UTC","SGP4","2012-07-26T21:42:30.151295","14.21584670","0.00026970","98.6419","261.5908","300.6925","59.3988","0","U","35871","999","14760","0.00001464700000","-0.00000011","0.0000000000000","7198.140","101.295","821.946","818.063","PAYLOAD","SMALL","CIS","2009-09-17","TTMTR","","1324961","89796617","0 BLITS","1 35871U 09049G   12208.90451564 -.00000011 +00000-0 +14647-4 0  9992","2 35871 098.6419 261.5908 0002697 300.6925 059.3988 14.21584670147601"
"2.0","GENERATED VIA SPACE-TRACK.ORG API","2012-07-27T00:57:34","18 SPCS","BLITS","2009-049G","EARTH","TEME","UTC","SGP4","2012-07-27T02:46:33.635712","14.21584712","0.00026770","98.6417","261.7976","300.2222","59.8692","0","U","35871","999","14763","0.00001504800000","-0.00000010","0.0000000000000","7198.140","101.295","821.931","818.078","PAYLOAD","SMALL","CIS","2009-09-17","TTMTR","","1324827","89786989","0 BLITS","1 35871U 09049G   12209.11566708 -.00000010  00000-0  15048-4 0  9998","2 35871 098.6417 261.7976 0002677 300.2222 059.8692 14.21584712147637"
"2.0","GENERATED VIA SPACE-TRACK.ORG API","2012-07-27T17:03:37","18 SPCS","BLITS","2009-049G","EARTH","TEME","UTC","SGP4","2012-07-27T16:17:22.924319","14.21584685","0.00026630","98.6419","262.3488","299.1644","60.9255","0","U","35871","999","14771","0.00001336100000","-0.00000014","0.0000000000000","7198.140","101.295","821.921","818.088","PAYLOAD","SMALL","CIS","2009-09-17","TTMTR","","1325242","89800495","0 BLITS","1 35871U 09049G   12209.67873755 -.00000014  00000-0  13361-4 0  9992","2 35871 098.6419 262.3488 0002663 299.1644 060.9255 14.21584685147719"
"2.0","GENERATED VIA SPACE-TRACK.ORG API","2012-07-28T07:06:06","18 SPCS","BLITS","2009-049G","EARTH","TEME","UTC","SGP4","2012-07-27T21:21:26.430336","14.21584552","0.00025950","98.6414","262.5555","297.5041","62.5859","0","U","35871","999","14774","0.00000846580000","-0.00000025","0.0000000000000","7198.140","101.295","821.873","818.137","PAYLOAD","SMALL","CIS","2009-09-17","TTMTR","","1325517","89812383","0 BLITS","1 35871U 09049G   12209.88988924 -.00000025 +00000-0 +84658-5 0  9990","2 35871 098.6414 262.5555 0002595 297.5041 062.5859 14.21584552147742"
"2.0","GENERATED VIA SPACE-TRACK.ORG API","2012-07-28T01:06:37","18 SPCS","BLITS","2009-049G","EARTH","TEME","UTC","SGP4","2012-07-28T02:25:29.942400","14.21584643","0.00025750","98.6413","262.7626","296.0525","64.0399","0","U","35871","999","14777","0.00001117600000","-0.00000019","0.0000000000000","7198.140","101.295","821.858","818.151","PAYLOAD","SMALL","CIS","2009-09-17","TTMTR","","1325414","89803137","0 BLITS","1 35871U 09049G   12210.10104100 -.00000019  00000-0  11176-4 0  9990","2 35871 098.6413 262.7626 0002575 296.0525 064.0399 14.21584643147771"
"2.0","GENERATED VIA SPACE-TRACK.ORG API","2012-07-28T16:59:29","18 SPCS","BLITS","2009-049G","EARTH","TEME","UTC","SGP4","2012-07-28T15:56:19.213728","14.21584585","0.00025960","98.6417","263.3142","295.1928","64.8967","0","U","35871","999","14785","0.00000905370000","-0.00000023","0.0000000000000","7198.140","101.295","821.874","818.136","PAYLOAD","SMALL","CIS","2009-09-17","TTMTR","","1325681","89816476","0 BLITS","1 35871U 09049G   12210.66411127 -.00000023  00000-0  90537-5 0  9995","2 35871 098.6417 263.3142 0002596 295.1928 064.8967 14.21584585147858"
"2.0","GENERATED VIA SPACE-TRACK.ORG API","2012-07-29T08:50:42","18 SPCS","BLITS","2009-049G","EARTH","TEME","UTC","SGP4","2012-07-28T21:00:22.724063","14.21584468","0.00025250","98.6414","263.5211","293.1159","66.9742","0","U","35871","999","14788","0.00000483420000","-0.00000033","0.0000000000000","7198.140","101.295","821.823","818.188","PAYLOAD","SMALL","CIS","2009-09-17","TTMTR","","1325928","89828978","0 BLITS","1 35871U 09049G   12210.87526301 -.00000033 +00000-0 +48342-5 0  9997","2 35871 098.6414 263.5211 0002525 293.1159 066.9742 14.21584468147887"
"2.0","GENERATED VIA SPACE-TRACK.ORG API","2012-07-29T01:02:10","18 SPCS","BLITS","2009-049G","EARTH","TEME","UTC","SGP4","2012-07-29T02:04:26.231807","14.21584544","0.00025040","98.6414","263.7281","292.3855","67.7066","0","U","35871","999","14791","0.00000677200000","-0.00000028","0.0000000000000","7198.140","101.295","821.807","818.203","PAYLOAD","SMALL","CIS","2009-09-17","TTMTR","","1325799","89818893","0 BLITS","1 35871U 09049G   12211.08641472 -.00000028  00000-0  67720-5 0  9993","2 35871 098.6414 263.7281 0002504 292.3855 067.7066 14.21584544147914"
"2.0","GENERATED VIA SPACE-TRACK.ORG API","2012-07-29T17:03:44","18 SPCS","BLITS","2009-049G","EARTH","TEME","UTC","SGP4","2012-07-29T17:16:36.685055","14.21584373","0.00024510","98.6414","264.3486","289.2237","70.8666","0","U","35871","999","14800","-0.00000116990000","-0.00000046","0.0000000000000","7198.141","101.295","821.770","818.241","PAYLOAD","SMALL","CIS","2009-09-17","TTMTR","","1326063","89832417","0 BLITS","1 35871U 09049G   12211.71986904 -.00000046  00000-0 -11699-5 0  9990","2 35871 098.6414 264.3486 0002451 289.2237 070.8666 14.21584373148000"
"2.0","GENERATED VIA SPACE-TRACK.ORG API","2012-07-30T08:53:07","18 SPCS","BLITS","2009-049G","EARTH","TEME","UTC","SGP4","2012-07-29T20:39:19.028160","14.21584259","0.00024150","98.6412","264.4862","288.3757","71.7145","0","U","35871","999","14802","-0.00000501570000","-0.00000054","0.0000000000000","7198.141","101.295","821.744","818.268","PAYLOAD","SMALL","CIS","2009-09-17","TTMTR","","1326336","89845522","0 BLITS","1 35871U 09049G   12211.86063690 -.00000054 +00000-0 -50157-5 0  9995","2 35871 098.6412 264.4862 0002415 288.3757 071.7145 14.21584259148021"
"2.0","GENERATED VIA SPACE-TRACK.ORG API","2012-07-30T00:46:35","18 SPCS","BLITS","2009-049G","EARTH","TEME","UTC","SGP4","2012-07-30T01:43:22.541951","14.21584314","0.00024280","98.6413","264.6930","287.6171","72.4749","0","U","35871","999","14805","-0.00000306740000","-0.00000050","0.0000000000000","7198.141","101.295","821.754","818.258","PAYLOAD","SMALL","CIS","2009-09-17","TTMTR","","1326176","89834953","0 BLITS","1 35871U 09049G   12212.07178868 -.00000050  00000-0 -30674-5 0  9991","2 35871 098.6413 264.6930 0002428 287.6171 072.4749 14.21584314148059"
"2.0","GENERATED VIA SPACE-TRACK.ORG API","2012-07-30T16:55:39","18 SPCS","BLITS","2009-049G","EARTH","TEME","UTC","SGP4","2012-07-30T13:32:50.678015","14.21584302","0.00024540","98.6413","265.1755","286.4485","73.6422","0","U","35871","999","14812","-0.00000320020000","-0.00000050","0.0000000000000","7198.141","101.295","821.772","818.239","PAYLOAD","SMALL","CIS","2009-09-17","TTMTR","","1326560","89848583","0 BLITS","1 35871U 09049G   12212.56447544 -.00000050  00000-0 -32002-5 0  9992","2 35871 098.6413 265.1755 0002454 286.4485 073.6422 14.21584302148120"
"2.0","GENERATED VIA SPACE-TRACK.ORG API","2012-07-31T08:54:12","18 SPCS","BLITS","2009-049G","EARTH","TEME","UTC","SGP4","2012-07-30T20:18:15.334848","14.21584027","0.00024470","98.6417","265.4515","284.4122","75.6774","0","U","35871","999","14816","-0.00001353500000","-0.00000073","0.0000000000000","7198.142","101.295","821.768","818.245","PAYLOAD","SMALL","CIS","2009-09-17","TTMTR","","1326912","89861567","0 BLITS","1 35871U 09049G   12212.84601082 -.00000073 +00000-0 -13535-4 0  9996","2 35871 098.6417 265.4515 0002447 284.4122 075.6774 14.21584027148169"
"2.0","GENERATED VIA SPACE-TRACK.ORG API","2012-07-31T00:54:34","18 SPCS","BLITS","2009-049G","EARTH","TEME","UTC","SGP4","2012-07-31T01:22:18.846912","14.21584668","0.00024780","98.6408","265.6587","280.6516","79.4451","0","U","35871","999","14819","0.00000850940000","-0.00000025","0.0000000000000","7198.140","101.295","821.788","818.221","PAYLOAD","SMALL","CIS","2009-09-17","TTMTR","","1326754","89851191","0 BLITS","1 35871U 09049G   12213.05716258 -.00000025  00000-0  85094-5 0  9998","2 35871 098.6408 265.6587 0002478 280.6516 079.4451 14.21584668148197"
"2.0","GENERATED VIA SPACE-TRACK.ORG API","2012-07-31T08:47:07","18 SPCS","BLITS","2009-049G","EARTH","TEME","UTC","SGP4","2012-07-31T03:03:39.893183","14.21584725","0.00024840","98.6408","265.7277","280.2828","79.8075","0","U","35871","999","14820","0.00001091100000","-0.00000019","0.0000000000000","7198.139","101.295","821.792","818.216","PAYLOAD","SMALL","CIS","2009-09-17","TTMTR","","1326903","89854079","0 BLITS","1 35871U 09049G   12213.12754506 -.00000019  00000-0  10911-4 0  9992","2 35871 098.6408 265.7277 0002484 280.2828 079.8075 14.21584725148205"
